[{"OBJECT_NAME":"THOR 6","OBJECT_ID":"2009-058B","EPOCH":"2026-04-04T21:34:38.715744","MEAN_MOTION":1.00271108,"ECCENTRICITY":0.00020722,"INCLINATION":0.0197,"RA_OF_ASC_NODE":190.8331,"ARG_OF_PERICENTER":204.4178,"MEAN_ANOMALY":120.7721,"EPHEMERIS_TYPE":0,"CLASSIFICATION_TYPE":"U","NORAD_CAT_ID":36033,"ELEMENT_SET_NO":999,"REV_AT_EPOCH":6027,"BSTAR":0,"MEAN_MOTION_DOT":-9.0e-8,"MEAN_MOTION_DDOT":0},{"OBJECT_NAME":"INTELSAT 14 (IS-14)","OBJECT_ID":"2009-064A","EPOCH":"2026-04-04T21:07:48.853920","MEAN_MOTION":1.00272708,"ECCENTRICITY":0.00025688,"INCLINATION":0.0448,"RA_OF_ASC_NODE":70.7484,"ARG_OF_PERICENTER":312.9257,"MEAN_ANOMALY":81.4744,"EPHEMERIS_TYPE":0,"CLASSIFICATION_TYPE":"U","NORAD_CAT_ID":36097,"ELEMENT_SET_NO":999,"REV_AT_EPOCH":5987,"BSTAR":0,"MEAN_MOTION_DOT":-2.73e-6,"MEAN_MOTION_DDOT":0},{"OBJECT_NAME":"EUTELSAT 36B","OBJECT_ID":"2009-065A","EPOCH":"2026-04-04T21:35:00.429792","MEAN_MOTION":1.00273616,"ECCENTRICITY":0.00060034,"INCLINATION":0.3067,"RA_OF_ASC_NODE":78.9803,"ARG_OF_PERICENTER":300.0456,"MEAN_ANOMALY":188.4157,"EPHEMERIS_TYPE":0,"CLASSIFICATION_TYPE":"U","NORAD_CAT_ID":36101,"ELEMENT_SET_NO":999,"REV_AT_EPOCH":5997,"BSTAR":0,"MEAN_MOTION_DOT":1.13e-6,"MEAN_MOTION_DDOT":0},{"OBJECT_NAME":"INTELSAT 15 (IS-15)","OBJECT_ID":"2009-067A","EPOCH":"2026-04-04T21:44:51.983808","MEAN_MOTION":1.00272217,"ECCENTRICITY":0.00024927,"INCLINATION":0.0181,"RA_OF_ASC_NODE":222.3175,"ARG_OF_PERICENTER":167.8755,"MEAN_ANOMALY":214.3829,"EPHEMERIS_TYPE":0,"CLASSIFICATION_TYPE":"U","NORAD_CAT_ID":36106,"ELEMENT_SET_NO":999,"REV_AT_EPOCH":4049,"BSTAR":0,"MEAN_MOTION_DOT":-1.84e-6,"MEAN_MOTION_DDOT":0},{"OBJECT_NAME":"WGS F3 (USA 211)","OBJECT_ID":"2009-068A","EPOCH":"2026-04-04T15:35:27.592224","MEAN_MOTION":1.00272098,"ECCENTRICITY":6.741e-5,"INCLINATION":0.407,"RA_OF_ASC_NODE":85.6454,"ARG_OF_PERICENTER":346.1167,"MEAN_ANOMALY":225.0429,"EPHEMERIS_TYPE":0,"CLASSIFICATION_TYPE":"U","NORAD_CAT_ID":36108,"ELEMENT_SET_NO":999,"REV_AT_EPOCH":4585,"BSTAR":0,"MEAN_MOTION_DOT":6.5e-7,"MEAN_MOTION_DDOT":0},{"OBJECT_NAME":"DIRECTV 12","OBJECT_ID":"2009-075A","EPOCH":"2026-04-04T20:51:14.770944","MEAN_MOTION":1.00272215,"ECCENTRICITY":4.957e-5,"INCLINATION":0.0287,"RA_OF_ASC_NODE":351.5603,"ARG_OF_PERICENTER":52.421,"MEAN_ANOMALY":359.2809,"EPHEMERIS_TYPE":0,"CLASSIFICATION_TYPE":"U","NORAD_CAT_ID":36131,"ELEMENT_SET_NO":999,"REV_AT_EPOCH":4581,"BSTAR":0,"MEAN_MOTION_DOT":-1.03e-6,"MEAN_MOTION_DDOT":0},{"OBJECT_NAME":"BEIDOU-2 G1","OBJECT_ID":"2010-001A","EPOCH":"2026-04-04T18:35:15.330336","MEAN_MOTION":1.00270774,"ECCENTRICITY":0.0004198,"INCLINATION":4.1223,"RA_OF_ASC_NODE":60.6028,"ARG_OF_PERICENTER":293.3833,"MEAN_ANOMALY":258.3826,"EPHEMERIS_TYPE":0,"CLASSIFICATION_TYPE":"U","NORAD_CAT_ID":36287,"ELEMENT_SET_NO":999,"REV_AT_EPOCH":5943,"BSTAR":0,"MEAN_MOTION_DOT":-2.78e-6,"MEAN_MOTION_DDOT":0},{"OBJECT_NAME":"SDO","OBJECT_ID":"2010-005A","EPOCH":"2026-04-03T00:09:38.804832","MEAN_MOTION":1.00274249,"ECCENTRICITY":5.789e-5,"INCLINATION":34.4952,"RA_OF_ASC_NODE":87.4755,"ARG_OF_PERICENTER":22.7728,"MEAN_ANOMALY":341.7255,"EPHEMERIS_TYPE":0,"CLASSIFICATION_TYPE":"U","NORAD_CAT_ID":36395,"ELEMENT_SET_NO":999,"REV_AT_EPOCH":5931,"BSTAR":0,"MEAN_MOTION_DOT":-5.4e-7,"MEAN_MOTION_DDOT":0},{"OBJECT_NAME":"INTELSAT 16 (IS-16)","OBJECT_ID":"2010-006A","EPOCH":"2026-04-04T20:58:51.540960","MEAN_MOTION":1.00270023,"ECCENTRICITY":0.00021524,"INCLINATION":0.0133,"RA_OF_ASC_NODE":220.8505,"ARG_OF_PERICENTER":180.3643,"MEAN_ANOMALY":30.4847,"EPHEMERIS_TYPE":0,"CLASSIFICATION_TYPE":"U","NORAD_CAT_ID":36397,"ELEMENT_SET_NO":999,"REV_AT_EPOCH":5891,"BSTAR":0,"MEAN_MOTION_DOT":0,"MEAN_MOTION_DDOT":0},{"OBJECT_NAME":"EWS-G2 (GOES 15)","OBJECT_ID":"2010-008A","EPOCH":"2026-04-04T21:42:21.626208","MEAN_MOTION":1.0027171,"ECCENTRICITY":0.00033595,"INCLINATION":1.0853,"RA_OF_ASC_NODE":84.3037,"ARG_OF_PERICENTER":17.8549,"MEAN_ANOMALY":119.9209,"EPHEMERIS_TYPE":0,"CLASSIFICATION_TYPE":"U","NORAD_CAT_ID":36411,"ELEMENT_SET_NO":999,"REV_AT_EPOCH":5890,"BSTAR":0,"MEAN_MOTION_DOT":2.3e-7,"MEAN_MOTION_DDOT":0},{"OBJECT_NAME":"ECHOSTAR 14","OBJECT_ID":"2010-010A","EPOCH":"2026-04-04T15:38:34.793376","MEAN_MOTION":1.0027109,"ECCENTRICITY":0.00018663,"INCLINATION":0.0188,"RA_OF_ASC_NODE":214.0832,"ARG_OF_PERICENTER":171.4815,"MEAN_ANOMALY":283.1441,"EPHEMERIS_TYPE":0,"CLASSIFICATION_TYPE":"U","NORAD_CAT_ID":36499,"ELEMENT_SET_NO":999,"REV_AT_EPOCH":4581,"BSTAR":0,"MEAN_MOTION_DOT":0,"MEAN_MOTION_DDOT":0},{"OBJECT_NAME":"SES-1","OBJECT_ID":"2010-016A","EPOCH":"2026-04-04T20:51:44.723232","MEAN_MOTION":1.00272785,"ECCENTRICITY":0.00026246,"INCLINATION":0.0281,"RA_OF_ASC_NODE":283.7719,"ARG_OF_PERICENTER":92.7807,"MEAN_ANOMALY":28.5533,"EPHEMERIS_TYPE":0,"CLASSIFICATION_TYPE":"U","NORAD_CAT_ID":36516,"ELEMENT_SET_NO":999,"REV_AT_EPOCH":5829,"BSTAR":0,"MEAN_MOTION_DOT":-1.14e-6,"MEAN_MOTION_DDOT":0},{"OBJECT_NAME":"ASTRA 3B","OBJECT_ID":"2010-021A","EPOCH":"2026-04-04T21:44:28.831200","MEAN_MOTION":1.00272619,"ECCENTRICITY":0.00035938,"INCLINATION":1.2799,"RA_OF_ASC_NODE":84.4252,"ARG_OF_PERICENTER":306.623,"MEAN_ANOMALY":151.7705,"EPHEMERIS_TYPE":0,"CLASSIFICATION_TYPE":"U","NORAD_CAT_ID":36581,"ELEMENT_SET_NO":999,"REV_AT_EPOCH":5813,"BSTAR":0,"MEAN_MOTION_DOT":1.38e-6,"MEAN_MOTION_DDOT":0},{"OBJECT_NAME":"COMSATBW-2","OBJECT_ID":"2010-021B","EPOCH":"2026-04-04T21:24:24.761664","MEAN_MOTION":1.00268984,"ECCENTRICITY":0.00027257,"INCLINATION":0.0206,"RA_OF_ASC_NODE":233.6844,"ARG_OF_PERICENTER":153.8011,"MEAN_ANOMALY":140.0169,"EPHEMERIS_TYPE":0,"CLASSIFICATION_TYPE":"U","NORAD_CAT_ID":36582,"ELEMENT_SET_NO":999,"REV_AT_EPOCH":5822,"BSTAR":0,"MEAN_MOTION_DOT":8.9e-7,"MEAN_MOTION_DDOT":0},{"OBJECT_NAME":"BEIDOU-2 G3","OBJECT_ID":"2010-024A","EPOCH":"2026-04-04T21:43:22.127808","MEAN_MOTION":1.00272795,"ECCENTRICITY":0.00085961,"INCLINATION":4.3428,"RA_OF_ASC_NODE":61.8013,"ARG_OF_PERICENTER":331.2889,"MEAN_ANOMALY":205.6448,"EPHEMERIS_TYPE":0,"CLASSIFICATION_TYPE":"U","NORAD_CAT_ID":36590,"ELEMENT_SET_NO":999,"REV_AT_EPOCH":5803,"BSTAR":0,"MEAN_MOTION_DOT":-1.34e-6,"MEAN_MOTION_DDOT":0},{"OBJECT_NAME":"BADR-5","OBJECT_ID":"2010-025A","EPOCH":"2026-04-04T21:00:38.827296","MEAN_MOTION":1.00269528,"ECCENTRICITY":0.00023347,"INCLINATION":0.046,"RA_OF_ASC_NODE":122.2213,"ARG_OF_PERICENTER":299.0654,"MEAN_ANOMALY":113.0578,"EPHEMERIS_TYPE":0,"CLASSIFICATION_TYPE":"U","NORAD_CAT_ID":36592,"ELEMENT_SET_NO":999,"REV_AT_EPOCH":5248,"BSTAR":0,"MEAN_MOTION_DOT":1.45e-6,"MEAN_MOTION_DDOT":0},{"OBJECT_NAME":"COMS 1","OBJECT_ID":"2010-032A","EPOCH":"2026-04-04T21:57:05.811840","MEAN_MOTION":1.00272389,"ECCENTRICITY":0.00013246,"INCLINATION":4.6158,"RA_OF_ASC_NODE":76.3725,"ARG_OF_PERICENTER":323.7678,"MEAN_ANOMALY":250.5111,"EPHEMERIS_TYPE":0,"CLASSIFICATION_TYPE":"U","NORAD_CAT_ID":36744,"ELEMENT_SET_NO":999,"REV_AT_EPOCH":5035,"BSTAR":0,"MEAN_MOTION_DOT":-3.42e-6,"MEAN_MOTION_DDOT":0}]
