THOR 6                  
1 36033U 09058B   26094.89905921 -.00000009  00000+0  00000+0 0  9999
2 36033   0.0197 190.8331 0002072 204.4178 120.7721  1.00271108 60271
INTELSAT 14 (IS-14)     
1 36097U 09064A   26094.88042655 -.00000273  00000+0  00000+0 0  9994
2 36097   0.0448  70.7484 0002568 312.9257  81.4744  1.00272708 59877
EUTELSAT 36B            
1 36101U 09065A   26094.89931053  .00000113  00000+0  00000+0 0  9993
2 36101   0.3067  78.9803 0006003 300.0456 188.4157  1.00273616 59971
INTELSAT 15 (IS-15)     
1 36106U 09067A   26094.90615722 -.00000184  00000+0  00000+0 0  9993
2 36106   0.0181 222.3175 0002492 167.8755 214.3829  1.00272217 40494
WGS F3 (USA 211)        
1 36108U 09068A   26094.64962491  .00000065  00000+0  00000+0 0  9992
2 36108   0.4070  85.6454 0000674 346.1167 225.0429  1.00272098 45853
DIRECTV 12              
1 36131U 09075A   26094.86892096 -.00000103  00000+0  00000+0 0  9997
2 36131   0.0287 351.5603 0000495  52.4210 359.2809  1.00272215 45812
BEIDOU-2 G1             
1 36287U 10001A   26094.77448299 -.00000278  00000+0  00000+0 0  9995
2 36287   4.1223  60.6028 0004198 293.3833 258.3826  1.00270774 59438
SDO                     
1 36395U 10005A   26093.00669913 -.00000054  00000+0  00000+0 0  9994
2 36395  34.4952  87.4755 0000578  22.7728 341.7255  1.00274249 59313
INTELSAT 16 (IS-16)     
1 36397U 10006A   26094.87420765  .00000000  00000+0  00000+0 0  9993
2 36397   0.0133 220.8505 0002152 180.3643  30.4847  1.00270023 58918
EWS-G2 (GOES 15)        
1 36411U 10008A   26094.90441697  .00000023  00000+0  00000+0 0  9998
2 36411   1.0853  84.3037 0003359  17.8549 119.9209  1.00271710 58905
ECHOSTAR 14             
1 36499U 10010A   26094.65179159  .00000000  00000+0  00000+0 0  9995
2 36499   0.0188 214.0832 0001866 171.4815 283.1441  1.00271090 45819
SES-1                   
1 36516U 10016A   26094.86926763 -.00000114  00000+0  00000+0 0  9992
2 36516   0.0281 283.7719 0002624  92.7807  28.5533  1.00272785 58290
ASTRA 3B                
1 36581U 10021A   26094.90588925  .00000138  00000+0  00000+0 0  9994
2 36581   1.2799  84.4252 0003593 306.6230 151.7705  1.00272619 58139
COMSATBW-2              
1 36582U 10021B   26094.89195326  .00000089  00000+0  00000+0 0  9997
2 36582   0.0206 233.6844 0002725 153.8011 140.0169  1.00268984 58225
BEIDOU-2 G3             
1 36590U 10024A   26094.90511722 -.00000134  00000+0  00000+0 0  9995
2 36590   4.3428  61.8013 0008596 331.2889 205.6448  1.00272795 58035
BADR-5                  
1 36592U 10025A   26094.87544939  .00000145  00000+0  00000+0 0  9991
2 36592   0.0460 122.2213 0002334 299.0654 113.0578  1.00269528 52484
COMS 1                  
1 36744U 10032A   26094.91465060 -.00000342  00000+0  00000+0 0  9990
2 36744   4.6158  76.3725 0001324 323.7678 250.5111  1.00272389 50356
